FLOCK 3P-88             
1 41982U 17008AL  18016.73695770  .00002220  00000-0  95087-4 0  9999
2 41982  97.4728  82.4969 0009075 157.6800 202.4833 15.23816683 49984
FLOCK 3P-85             
1 41983U 17008AM  18016.45927920  .00002290  00000-0  97849-4 0  9999
2 41983  97.4731  82.2650 0008907 161.9318 198.2237 15.23862721 50840
FLOCK 3P-79             
1 41984U 17008AN  18016.72255483  .00001072  00000-0  47454-4 0  9992
2 41984  97.4729  82.5243 0008623 160.1860 199.9714 15.23821312 50880
FLOCK 3P-86             
1 41985U 17008AP  18016.72405250  .00001120  00000-0  49453-4 0  9997
2 41985  97.4728  82.5168 0008607 159.5585 200.5998 15.23806795 50874
FLOCK 3P-36             
1 41986U 17008AQ  18017.12034600  .00001094  00000-0  48345-4 0  9999
2 41986  97.4710  82.8278 0008465 155.8215 204.3421 15.23826112 50421
FLOCK 3P-30             
1 41987U 17008AR  18016.84949466  .00003053  00000-0  12967-3 0  9990
2 41987  97.4713  82.5779 0008321 157.7679 202.3920 15.23811407 50854
FLOCK 3P-34             
1 41988U 17008AS  18016.72954447  .00001140  00000-0  50273-4 0  9991
2 41988  97.4708  82.4137 0008537 154.9930 205.1722 15.23824123 50360
FLOCK 3P-35             
1 41989U 17008AT  18016.73280746  .00001108  00000-0  48986-4 0  9999
2 41989  97.4706  82.4073 0008707 155.0568 205.1091 15.23799443 50361
FLOCK 3P-33             
1 41990U 17008AU  18016.72727432  .00000966  00000-0  43062-4 0  9999
2 41990  97.4708  82.4216 0008322 155.6918 204.4713 15.23826492 50360
LEMUR-2-SATCHMO         
1 41991U 17008AV  18017.15530934  .00001072  00000-0  48664-4 0  9999
2 41991  97.4696  82.5985 0008440 157.2597 202.9015 15.22955416 50415
LEMUR-2-MIA-GRACE       
1 41992U 17008AW  18016.77164850  .00001517  00000-0  66675-4 0  9993
2 41992  97.4701  82.3579 0008326 158.5413 201.6174 15.23436614 50365
LEMUR-2-SMITA-SHARAD    
1 41993U 17008AX  18016.40729752  .00001219  00000-0  54645-4 0  9995
2 41993  97.4697  81.9156 0008302 159.3342 200.8232 15.23125101 50306
LEMUR-2-SPIRE-MINIONS   
1 41994U 17008AY  18016.84642614  .00001537  00000-0  67593-4 0  9994
2 41994  97.4698  82.4014 0008383 157.6658 202.4945 15.23395577 50379
LEMUR-2-RDEATON         
1 41995U 17008AZ  18016.39921474  .00001184  00000-0  53074-4 0  9996
2 41995  97.4699  81.9307 0009002 173.3476 186.7882 15.23179334 50984
LEMUR-2-NOGUECORREIG    
1 41996U 17008BA  18016.83226277  .00001500  00000-0  65997-4 0  9994
2 41996  97.4705  82.4348 0008983 172.2881 187.8495 15.23402531 50271
LEMUR-2-JOBANPUTRA      
1 41997U 17008BB  18016.15164178  .00001579  00000-0  69051-4 0  9992
2 41997  97.4708  81.8151 0008865 174.2903 185.8436 15.23531771 50267
LEMUR-2-TACHIKOMA       
1 41998U 17008BC  18016.40819455  .00001185  00000-0  53269-4 0  9993
2 41998  97.4698  81.9160 0008912 173.7010 186.4340 15.23077751 50223
BGUSAT                  
1 41999U 17008BD  18015.92325130  .00002286  00000-0  97610-4 0  9993
2 41999  97.4715  81.6790 0008806 175.9181 184.2130 15.23897819 50234
DIDO-2                  
1 42000U 17008BE  18016.82255448  .00000937  00000-0  43015-4 0  9992
2 42000  97.4692  82.2739 0008899 173.0195 187.1167 15.22873227 50360
FLOCK 3P-49             
1 42001U 17008BF  18016.84581389  .00001677  00000-0  72605-4 0  9990
2 42001  97.4709  82.5739 0008536 172.9460 187.1899 15.23791983 50905
FLOCK 3P-67             
1 42002U 17008BG  18015.79425005  .00002557  00000-0  10860-3 0  9998
2 42002  97.4711  81.5214 0008373 175.3916 184.7400 15.23969890 50903
FLOCK 3P-68             
1 42003U 17008BH  18016.39274154  .00001212  00000-0  53244-4 0  9994
2 42003  97.4706  82.0940 0008625 172.3442 187.7928 15.23827195 50630
FLOCK 3P-41             
1 42004U 17008BJ  18016.84076664  .00000964  00000-0  43008-4 0  9991
2 42004  97.4705  82.5612 0008403 172.6640 187.4721 15.23809246 50891
FLOCK 3P-45             
1 42005U 17008BK  18015.92092607  .00002608  00000-0  11064-3 0  9998
2 42005  97.4711  81.6579 0008262 175.9766 184.1539 15.23981020 50925
FLOCK 3P-48             
1 42006U 17008BL  18016.84410862  .00001053  00000-0  46697-4 0  9992
2 42006  97.4710  82.5766 0008262 173.3017 186.8332 15.23796866 50847
FLOCK 3P-43             
1 42007U 17008BM  18015.85986350  .00000758  00000-0  34555-4 0  9994
2 42007  97.4711  81.5821 0008160 176.8098 183.3192 15.23695284 50909
FLOCK 3P-42             
1 42008U 17008BN  18015.72623543  .00003412  00000-0  14458-3 0  9992
2 42008  97.4710  81.4463 0008163 176.9350 183.1938 15.23812315 50817
FLOCK 3P-61             
1 42009U 17008BP  18015.92234373  .00003319  00000-0  14073-3 0  9993
2 42009  97.4711  81.6509 0008004 178.2760 181.8506 15.23809994 50899
FLOCK 3P-40             
1 42010U 17008BQ  18015.91617640  .00003342  00000-0  14167-3 0  9996
2 42010  97.4704  81.6346 0007930 179.0318 181.0935 15.23807956 50150
FLOCK 3P-16             
1 42011U 17008BR  18016.82393217  .00002978  00000-0  12667-3 0  9996
2 42011  97.4702  82.5688 0007684 176.2143 183.9154 15.23780685 50231
FLOCK 3P-14             
1 42012U 17008BS  18015.64158662  .00001809  00000-0  77971-4 0  9991
2 42012  97.4713  81.4116 0007785 182.3857 177.7344 15.23856800 50673
FLOCK 3P-53             
1 42013U 17008BT  18016.36774179  .00001233  00000-0  54157-4 0  9991
2 42013  97.4698  82.0884 0007618 177.7181 182.4092 15.23813982 50787
FLOCK 3P-54             
1 42014U 17008BU  18017.15916457  .00003037  00000-0  12909-3 0  9999
2 42014  97.4702  82.8885 0007651 176.0966 184.0332 15.23791428 51071
PEASSS                  
1 42015U 17008BV  18016.41813672  .00001128  00000-0  50094-4 0  9990
2 42015  97.4687  82.1589 0006570 178.9898 181.1353 15.23609958 50809
AL-FARABI 1             
1 42016U 17008BW  18016.84089294  .00001379  00000-0  60018-4 0  9998
2 42016  97.4691  82.6802 0006514 177.9695 182.1569 15.23928902 50993
NAYIF-1 (EO-88)         
1 42017U 17008BX  18015.91808991  .00001496  00000-0  64837-4 0  9992
2 42017  97.4692  81.7661 0006385 181.2669 178.8553 15.23946671 50878
FLOCK 3P-23             
1 42018U 17008BY  18016.17290209  .00003345  00000-0  14183-3 0  9992
2 42018  97.4701  81.7435 0009453 155.7293 204.4391 15.23787688 49726
FLOCK 3P-76             
1 42019U 17008BZ  18016.73077040  .00001208  00000-0  53106-4 0  9996
2 42019  97.4732  82.5243 0009035 159.1623 200.9984 15.23810139 50873
FLOCK 3P-69             
1 42020U 17008CA  18016.72924833  .00001033  00000-0  45835-4 0  9994
2 42020  97.4731  82.5253 0008942 157.9261 202.2363 15.23812181 49766
FLOCK 3P-84             
1 42021U 17008CB  18016.34559256  .00002043  00000-0  87757-4 0  9997
2 42021  97.4727  82.1000 0009256 159.3261 200.8353 15.23802451 50824
FLOCK 3P-59             
1 42022U 17008CC  18016.14691894  .00002460  00000-0  10475-3 0  9996
2 42022  97.4709  81.8157 0008681 159.8138 200.3444 15.23911185 49811
FLOCK 3P-32             
1 42023U 17008CD  18015.89039520  .00003209  00000-0  13622-3 0  9999
2 42023  97.4711  81.5491 0008749 157.2627 202.8999 15.23792986 50914
FLOCK 3P-71             
1 42024U 17008CE  18015.90776287  .00002562  00000-0  10935-3 0  9995
2 42024  97.4733  81.6384 0008940 162.3441 197.8109 15.23797870 49781
FLOCK 3P-77             
1 42025U 17008CF  18016.73202808  .00001027  00000-0  45640-4 0  9998
2 42025  97.4729  82.5113 0008954 159.3665 200.7935 15.23797661 50888
FLOCK 3P-80             
1 42026U 17008CG  18015.79424886  .00001578  00000-0  68232-4 0  9999
2 42026  97.4729  81.6145 0008455 162.4013 197.7519 15.23932797 48883
FLOCK 3P-66             
1 42027U 17008CH  18016.39219716  .00001322  00000-0  57836-4 0  9996
2 42027  97.4710  82.1078 0008655 171.7279 188.4102 15.23816466 50943
FLOCK 3P-65             
1 42028U 17008CJ  18016.71852370  .00001014  00000-0  45057-4 0  9992
2 42028  97.4710  82.4370 0008551 170.8920 189.2474 15.23810593 50890
FLOCK 3P-50             
1 42029U 17008CK  18016.84639828  .00001113  00000-0  49192-4 0  9992
2 42029  97.4711  82.5820 0008309 172.4148 187.7216 15.23810831 50234
FLOCK 3P-52             
1 42030U 17008CL  18017.11120621  .00002535  00000-0  10818-3 0  9992
2 42030  97.4708  82.8265 0008470 170.7157 189.4238 15.23811165 51042
FLOCK 3P-46             
1 42031U 17008CM  18016.84338560  .00001191  00000-0  52434-4 0  9993
2 42031  97.4705  82.5618 0008343 172.7122 187.4238 15.23798135 51030
FLOCK 3P-47             
1 42032U 17008CN  18017.17346641  .00001139  00000-0  50271-4 0  9999
2 42032  97.4703  82.8848 0008288 171.9425 188.1947 15.23794840 50934
FLOCK 3P-44             
1 42033U 17008CP  18016.77544448  .00000695  00000-0  31964-4 0  9994
2 42033  97.4709  82.5091 0008287 176.0842 184.0462 15.23677539 49622
FLOCK 3P-64             
1 42034U 17008CQ  18015.92046657  .00003377  00000-0  14316-3 0  9991
2 42034  97.4707  81.6428 0008038 178.0446 182.0824 15.23800120 50919
FLOCK 3P-63             
1 42035U 17008CR  18016.83756037  .00002966  00000-0  12613-3 0  9994
2 42035  97.4702  82.5553 0008103 174.8064 185.3259 15.23789702 49027
FLOCK 3P-62             
1 42036U 17008CS  18016.41874563  .00002327  00000-0  98826-4 0  9996
2 42036  97.4706  82.2032 0008042 178.1501 181.9767 15.24059796 50163
FLOCK 3P-38             
1 42037U 17008CT  18016.17950534  .00003261  00000-0  13841-3 0  9994
2 42037  97.4707  81.9063 0007736 177.5217 182.6060 15.23788498 50904
FLOCK 3P-39             
1 42038U 17008CU  18016.43983741  .00003068  00000-0  13040-3 0  9996
2 42038  97.4702  82.1550 0007973 177.1340 182.9944 15.23781190 50894
FLOCK 3P-15             
1 42039U 17008CV  18017.16733492  .00003146  00000-0  13351-3 0  9996
2 42039  97.4701  82.8810 0007971 174.3029 185.8300 15.23817497 50282
FLOCK 3P-13             
1 42040U 17008CW  18016.11081001  .00001368  00000-0  59923-4 0  9994
2 42040  97.4709  81.8524 0007721 179.1189 181.0063 15.23721046 50116
